{
    "links": {
        "self": "http://www.neowsapp.com/rest/v1/neo/3699449?api_key=iIulBulltgU6a56xZRHN4H3l9WmuAYTsLGpBGhQ2"
    },
    "id": "3699449",
    "neo_reference_id": "3699449",
    "name": "(2014 WY362)",
    "designation": "2014 WY362",
    "nasa_jpl_url": "http://ssd.jpl.nasa.gov/sbdb.cgi?sstr=3699449",
    "absolute_magnitude_h": 25.4,
    "estimated_diameter": {
        "kilometers": {
            "estimated_diameter_min": 0.022108281,
            "estimated_diameter_max": 0.0494356193
        },
        "meters": {
            "estimated_diameter_min": 22.1082810359,
            "estimated_diameter_max": 49.435619262
        },
        "miles": {
            "estimated_diameter_min": 0.0137374447,
            "estimated_diameter_max": 0.0307178602
        },
        "feet": {
            "estimated_diameter_min": 72.5337327539,
            "estimated_diameter_max": 162.1903570994
        }
    },
    "is_potentially_hazardous_asteroid": false,
    "close_approach_data": [
        {
            "close_approach_date": "2014-11-06",
            "close_approach_date_full": "2014-Nov-06 15:15",
            "epoch_date_close_approach": 1415286900000,
            "relative_velocity": {
                "kilometers_per_second": "9.3084749349",
                "kilometers_per_hour": "33510.5097656934",
                "miles_per_hour": "20822.127581911"
            },
            "miss_distance": {
                "astronomical": "0.0216439087",
                "lunar": "8.4194804843",
                "kilometers": "3237882.639994469",
                "miles": "2011926.9781989122"
            },
            "orbiting_body": "Earth"
        }
    ],
    "orbital_data": {
        "orbit_id": "3",
        "orbit_determination_date": "2017-04-06 08:37:09",
        "first_observation_date": "2014-11-22",
        "last_observation_date": "2014-11-27",
        "data_arc_in_days": 5,
        "observations_used": 10,
        "orbit_uncertainty": "9",
        "minimum_orbit_intersection": ".0061553",
        "jupiter_tisserand_invariant": "4.065",
        "epoch_osculation": "2456986.5",
        "eccentricity": ".4523036123567462",
        "semi_major_axis": "1.709887947981715",
        "inclination": "1.288083684277652",
        "ascending_node_longitude": "24.31643075102122",
        "orbital_period": "816.6762082287665",
        "perihelion_distance": ".936499452384321",
        "perihelion_argument": "341.0898724026313",
        "aphelion_distance": "2.483276443579109",
        "perihelion_time": "2456938.212165781227",
        "mean_anomaly": "21.28581700262878",
        "mean_motion": ".4408111762932087",
        "equinox": "J2000",
        "orbit_class": {
            "orbit_class_type": "APO",
            "orbit_class_description": "Near-Earth asteroid orbits which cross the Earth’s orbit similar to that of 1862 Apollo",
            "orbit_class_range": "a (semi-major axis) > 1.0 AU; q (perihelion) < 1.017 AU"
        }
    },
    "is_sentry_object": false
}